STARLINK-2731           
1 48651U 21044P   26068.50167346  .00008212  00000+0  28894-3 0  9995
2 48651  53.1608 114.7581 0001669  81.5472 278.5718 15.30216557263795
2025-313BD              
1 67299U 25313BD  26068.62968741  .00081010  00000+0  27634-2 0  9995
2 67299  97.3970 145.2850 0007287 333.4514  26.6352 15.30002360 10838
